{
  "type": "FeatureCollection",
  "name": "JDT_Work_Zones",
  "features": [
    {
      "type": "Feature",
      "properties": {
        "Work_Zone_ID": "JDT_Work_Zones-SEED",
        "Project_ID": "SCHEMA-SEED",
        "Zone_Name": "Schema Seed - Replace",
        "Work_Type": "Schema Seed - Replace",
        "Assigned_Crew": "Schema Seed - Replace",
        "Start_Date": "2026-06-15T00:00:00.000Z",
        "End_Date": "2026-06-15T00:00:00.000Z",
        "Status": "Schema Seed",
        "Notes": "Schema Seed - Replace"
      },
      "geometry": {
        "type": "Polygon",
        "coordinates": [
          [
            [
              -80.91844,
              26.7547
            ],
            [
              -80.91844,
              26.7554
            ],
            [
              -80.91774000000001,
              26.7554
            ],
            [
              -80.91774000000001,
              26.7547
            ],
            [
              -80.91844,
              26.7547
            ]
          ]
        ]
      }
    }
  ]
}
